IRIDIUM 36              
1 24967U 97056C   24256.58777095  .00002078  00000+0  69443-3 0  9997
2 24967  86.3922 289.5948 0002187  96.8406 263.3040 14.37029408412346
IRIDIUM 39              
1 25042U 97069D   24256.76427025  .00004621  00000+0  12281-2 0  9994
2 25042  86.3952 330.0777 0019428 147.4849 212.7556 14.48332285408792
IRIDIUM 38              
1 25043U 97069E   24256.84598853  .00002506  00000+0  83085-3 0  9993
2 25043  86.4019 349.8390 0000584  42.0897 318.0346 14.37515449406364
IRIDIUM 42              
1 25077U 97077A   24256.79414058  .00003285  00000+0  11292-2 0  9992
2 25077  86.4024 355.6830 0001599  81.1930 278.9448 14.35797005401382
IRIDIUM 44              
1 25078U 97077B   24256.65975768  .00002543  00000+0  80762-3 0  9993
2 25078  86.4006 338.4193 0001789 148.2712 211.8595 14.39641529403764
IRIDIUM 45              
1 25104U 97082A   24256.84500969  .00047108  00000+0  23956-2 0  9994
2 25104  86.3717 180.9937 0145336 280.2665  78.2212 15.07831577410049
IRIDIUM 24              
1 25105U 97082B   24256.91704257  .00002790  00000+0  85422-3 0  9994
2 25105  86.3966 197.7457 0009019 276.1368  83.8804 14.41450753403265
IRIDIUM 51              
1 25262U 98018A   24256.84160741  .00053248  00000+0  21777-2 0  9990
2 25262  86.3981 190.5217 0130128 216.9899 142.2320 15.16612872404672
